CCSDS_OMM_VERS,COMMENT,CREATION_DATE,ORIGINATOR,OBJECT_NAME,OBJECT_ID,CENTER_NAME,REF_FRAME,TIME_SYSTEM,MEAN_ELEMENT_THEORY,EPOCH,MEAN_MOTION,ECCENTRICITY,INCLINATION,RA_OF_ASC_NODE,ARG_OF_PERICENTER,MEAN_ANOMALY,EPHEMERIS_TYPE,CLASSIFICATION_TYPE,NORAD_CAT_ID,ELEMENT_SET_NO,REV_AT_EPOCH,BSTAR,MEAN_MOTION_DOT,MEAN_MOTION_DDOT,SEMIMAJOR_AXIS,PERIOD,APOAPSIS,PERIAPSIS,OBJECT_TYPE,RCS_SIZE,COUNTRY_CODE,LAUNCH_DATE,SITE,DECAY_DATE,FILE,GP_ID,TLE_LINE0,TLE_LINE1,TLE_LINE2
"2.0","GENERATED VIA SPACE-TRACK.ORG API","2012-07-14T01:05:37","18 SPCS","BLITS","2009-049G","EARTH","TEME","UTC","SGP4","2012-07-14T02:16:18.591167","14.21583926","0.00035390","98.6460","249.0431","344.6492","15.4578","0","U","35871","999","14578","0.00001194200000","-0.00000017","0.0000000000000","7198.142","101.295","822.555","817.460","PAYLOAD","SMALL","CIS","2009-09-17","TTMTR","","1317592","89581404","0 BLITS","1 35871U 09049G   12196.09465962 -.00000017  00000-0  11942-4 0  9996","2 35871 098.6460 249.0431 0003539 344.6492 015.4578 14.21583926145780"
"2.0","GENERATED VIA SPACE-TRACK.ORG API","2012-07-14T09:18:21","18 SPCS","BLITS","2009-049G","EARTH","TEME","UTC","SGP4","2012-07-14T14:05:46.734143","14.21583951","0.00035390","98.6460","249.5256","343.2244","16.8815","0","U","35871","999","14585","0.00001194200000","-0.00000017","0.0000000000000","7198.142","101.295","822.554","817.460","PAYLOAD","SMALL","CIS","2009-09-17","TTMTR","","1317751","89592064","0 BLITS","1 35871U 09049G   12196.58734646 -.00000017  00000-0  11942-4 0  9998","2 35871 098.6460 249.5256 0003539 343.2244 016.8815 14.21583951145855"
"2.0","GENERATED VIA SPACE-TRACK.ORG API","2012-07-15T01:37:07","18 SPCS","BLITS","2009-049G","EARTH","TEME","UTC","SGP4","2012-07-15T01:55:14.876255","14.21584081","0.00035230","98.6460","250.0086","341.7193","18.3867","0","U","35871","999","14592","0.00001575600000","-0.00000009","0.0000000000000","7198.142","101.295","822.543","817.471","PAYLOAD","SMALL","CIS","2009-09-17","TTMTR","","1317997","89596901","0 BLITS","1 35871U 09049G   12197.08003329 -.00000009  00000-0  15756-4 0  9999","2 35871 098.6460 250.0086 0003523 341.7193 018.3867 14.21584081145929"
"2.0","GENERATED VIA SPACE-TRACK.ORG API","2012-07-15T16:46:19","18 SPCS","BLITS","2009-049G","EARTH","TEME","UTC","SGP4","2012-07-15T15:26:04.162272","14.21583944","0.00034710","98.6457","250.5600","340.1182","19.9844","0","U","35871","999","14600","0.00000951670000","-0.00000022","0.0000000000000","7198.142","101.295","822.506","817.509","PAYLOAD","SMALL","CIS","2009-09-17","TTMTR","","1318277","89609964","0 BLITS","1 35871U 09049G   12197.64310373 -.00000022  00000-0  95167-5 0  9991","2 35871 098.6457 250.5600 0003471 340.1182 019.9844 14.21583944146004"
"2.0","GENERATED VIA SPACE-TRACK.ORG API","2012-07-16T00:44:19","18 SPCS","BLITS","2009-049G","EARTH","TEME","UTC","SGP4","2012-07-16T03:15:32.332032","14.21583910","0.00034660","98.6457","251.0427","338.6688","21.4339","0","U","35871","999","14607","0.00000778990000","-0.00000026","0.0000000000000","7198.142","101.295","822.502","817.512","PAYLOAD","SMALL","CIS","2009-09-17","TTMTR","","1318421","89612360","0 BLITS","1 35871U 09049G   12198.13579088 -.00000026  00000-0  77899-5 0  9992","2 35871 098.6457 251.0427 0003466 338.6688 021.4339 14.21583910146071"
"2.0","GENERATED VIA SPACE-TRACK.ORG API","2012-07-16T09:04:16","18 SPCS","BLITS","2009-049G","EARTH","TEME","UTC","SGP4","2012-07-16T06:38:14.669087","14.21583750","0.00034490","98.6456","251.1806","338.3916","21.7099","0","U","35871","999","14609","0.00000199770000","-0.00000039","0.0000000000000","7198.143","101.295","822.490","817.525","PAYLOAD","SMALL","CIS","2009-09-17","TTMTR","","1318551","89622228","0 BLITS","1 35871U 09049G   12198.27655867 -.00000039  00000-0  19977-5 0  9994","2 35871 098.6456 251.1806 0003449 338.3916 021.7099 14.21583750146094"
"2.0","GENERATED VIA SPACE-TRACK.ORG API","2012-07-16T16:58:23","18 SPCS","BLITS","2009-049G","EARTH","TEME","UTC","SGP4","2012-07-16T16:46:21.683711","14.21583738","0.00034400","98.6459","251.5944","337.2192","22.8830","0","U","35871","999","14615","0.00000213850000","-0.00000039","0.0000000000000","7198.143","101.295","822.484","817.532","PAYLOAD","SMALL","CIS","2009-09-17","TTMTR","","1319106","89625355","0 BLITS","1 35871U 09049G   12198.69886208 -.00000039  00000-0  21385-5 0  9991","2 35871 098.6459 251.5944 0003440 337.2192 022.8830 14.21583738146157"
"2.0","GENERATED VIA SPACE-TRACK.ORG API","2012-07-17T06:25:36","18 SPCS","BLITS","2009-049G","EARTH","TEME","UTC","SGP4","2012-07-17T01:13:07.508639","14.21583796","0.00034470","98.6460","251.9393","336.1193","23.9832","0","U","35871","999","14620","0.00000382440000","-0.00000035","0.0000000000000","7198.143","101.295","822.489","817.526","PAYLOAD","SMALL","CIS","2009-09-17","TTMTR","","1319282","89628278","0 BLITS","1 35871U 09049G   12199.05078135 -.00000035  00000-0  38244-5 0  9992","2 35871 098.6460 251.9393 0003447 336.1193 023.9832 14.21583796146201"
"2.0","GENERATED VIA SPACE-TRACK.ORG API","2012-07-17T09:39:05","18 SPCS","BLITS","2009-049G","EARTH","TEME","UTC","SGP4","2012-07-17T02:54:28.660320","14.21583970","0.00034600","98.6458","252.0084","335.6330","24.4707","0","U","35871","999","14621","0.00000827520000","-0.00000025","0.0000000000000","7198.142","101.295","822.498","817.516","PAYLOAD","SMALL","CIS","2009-09-17","TTMTR","","1319414","89637771","0 BLITS","1 35871U 09049G   12199.12116505 -.00000025  00000-0  82752-5 0  9996","2 35871 098.6458 252.0084 0003460 335.6330 024.4707 14.21583970146211"
"2.0","GENERATED VIA SPACE-TRACK.ORG API","2012-07-17T18:50:51","18 SPCS","BLITS","2009-049G","EARTH","TEME","UTC","SGP4","2012-07-17T16:25:17.925600","14.21584012","0.00034390","98.6457","252.5598","333.8186","26.2818","0","U","35871","999","14629","0.00000934680000","-0.00000023","0.0000000000000","7198.142","101.295","822.482","817.531","PAYLOAD","SMALL","CIS","2009-09-17","TTMTR","","1319646","89641179","0 BLITS","1 35871U 09049G   12199.68423525 -.00000023  00000-0  93468-5 0  9994","2 35871 098.6457 252.5598 0003439 333.8186 026.2818 14.21584012146299"
"2.0","GENERATED VIA SPACE-TRACK.ORG API","2012-07-18T09:32:12","18 SPCS","BLITS","2009-049G","EARTH","TEME","UTC","SGP4","2012-07-17T16:25:17.925600","14.21584012","0.00034390","98.6457","252.5598","333.8186","26.2818","0","U","35871","999","14629","0.00000934680000","-0.00000023","0.0000000000000","7198.142","101.295","822.482","817.531","PAYLOAD","SMALL","CIS","2009-09-17","TTMTR","","1319988","89655643","0 BLITS","1 35871U 09049G   12199.68423525 -.00000023 +00000-0 +93468-5 0  9994","2 35871 098.6457 252.5598 0003439 333.8186 026.2818 14.21584012146299"
"2.0","GENERATED VIA SPACE-TRACK.ORG API","2012-07-18T00:33:56","18 SPCS","BLITS","2009-049G","EARTH","TEME","UTC","SGP4","2012-07-18T02:33:24.903072","14.21583955","0.00034360","98.6460","252.9737","332.7839","27.3146","0","U","35871","999","14635","0.00000805260000","-0.00000026","0.0000000000000","7198.142","101.295","822.480","817.534","PAYLOAD","SMALL","CIS","2009-09-17","TTMTR","","1319810","89643771","0 BLITS","1 35871U 09049G   12200.10653823 -.00000026  00000-0  80526-5 0  9994","2 35871 098.6460 252.9737 0003436 332.7839 027.3146 14.21583955146350"
"2.0","GENERATED VIA SPACE-TRACK.ORG API","2012-07-18T16:43:25","18 SPCS","BLITS","2009-049G","EARTH","TEME","UTC","SGP4","2012-07-18T16:04:14.201183","14.21584136","0.00033570","98.6461","253.5255","331.3630","28.7365","0","U","35871","999","14643","0.00001324500000","-0.00000014","0.0000000000000","7198.141","101.295","822.423","817.590","PAYLOAD","SMALL","CIS","2009-09-17","TTMTR","","1320153","89657937","0 BLITS","1 35871U 09049G   12200.66960881 -.00000014  00000-0  13245-4 0  9990","2 35871 098.6461 253.5255 0003357 331.3630 028.7365 14.21584136146438"
"2.0","GENERATED VIA SPACE-TRACK.ORG API","2012-07-19T00:35:10","18 SPCS","BLITS","2009-049G","EARTH","TEME","UTC","SGP4","2012-07-19T02:12:21.174336","14.21584247","0.00032730","98.6463","253.9417","330.0889","30.0127","0","U","35871","999","14649","-0.00004838800000","-0.00000149","0.0000000000000","7198.141","101.295","822.362","817.650","PAYLOAD","SMALL","CIS","2009-09-17","TTMTR","","1320333","89660982","0 BLITS","1 35871U 09049G   12201.09191174 -.00000149  00000-0 -48388-4 0  9995","2 35871 098.6463 253.9417 0003273 330.0889 030.0127 14.21584247146494"
"2.0","GENERATED VIA SPACE-TRACK.ORG API","2012-07-19T17:30:07","18 SPCS","BLITS","2009-049G","EARTH","TEME","UTC","SGP4","2012-07-19T17:24:31.628448","14.21584318","0.00033790","98.6464","254.5603","328.8791","31.2189","0","U","35871","999","14658","0.00001818000000","-0.00000003","0.0000000000000","7198.141","101.295","822.438","817.574","PAYLOAD","SMALL","CIS","2009-09-17","TTMTR","","1320699","89673108","0 BLITS","1 35871U 09049G   12201.72536607 -.00000003  00000-0  18180-4 0  9994","2 35871 098.6464 254.5603 0003379 328.8791 031.2189 14.21584318146583"
"2.0","GENERATED VIA SPACE-TRACK.ORG API","2012-07-20T01:00:26","18 SPCS","BLITS","2009-049G","EARTH","TEME","UTC","SGP4","2012-07-20T01:51:17.433503","14.21584407","0.00033900","98.6466","254.9054","327.7481","32.3499","0","U","35871","999","14663","0.00001971400000","0.00000000","0.0000000000000","7198.141","101.295","822.446","817.565","PAYLOAD","SMALL","CIS","2009-09-17","TTMTR","","1320971","89676485","0 BLITS","1 35871U 09049G   12202.07728511 -.00000000  00000-0  19714-4 0  9991","2 35871 098.6466 254.9054 0003390 327.7481 032.3499 14.21584407146637"
